{
  "norad_id": 45088,
  "name": "STARLINK-1183",
  "history": [
    {
      "epoch": "2026-04-14T14:37:23.410272Z",
      "apogee_km": 474.72610161229295,
      "perigee_km": 472.78016481445957,
      "latitude_deg": -2.3368026641055665e-05,
      "longitude_deg": 13.59167481879561,
      "height_km": 474.9225245615141,
      "semi_major_axis_km": 6851.8901332133755,
      "eccentricity": 0.000142,
      "inclination_deg": 53.1609,
      "raan_deg": 75.7225,
      "arg_perigee_deg": 106.1822,
      "mean_anomaly_deg": 253.9335,
      "mean_motion_rev_day": 15.30689757
    },
    {
      "epoch": "2026-04-15T04:43:34.253472Z",
      "apogee_km": 474.37938383702294,
      "perigee_km": 472.975447063297,
      "latitude_deg": -9.220716130612664e-07,
      "longitude_deg": 158.73462240274642,
      "height_km": 474.63001797987977,
      "semi_major_axis_km": 6851.81441545016,
      "eccentricity": 0.00010245,
      "inclination_deg": 53.1601,
      "raan_deg": 72.9898,
      "arg_perigee_deg": 94.4103,
      "mean_anomaly_deg": 265.7015,
      "mean_motion_rev_day": 15.3071513
    },
    {
      "epoch": "2026-04-16T22:00:01.998720Z",
      "apogee_km": 474.410410987809,
      "perigee_km": 472.23712763178355,
      "latitude_deg": 42.453949398864985,
      "longitude_deg": 26.956987742940676,
      "height_km": 476.3587566685405,
      "semi_major_axis_km": 6851.460769309796,
      "eccentricity": 0.0001586,
      "inclination_deg": 53.1589,
      "raan_deg": 64.9941,
      "arg_perigee_deg": 118.2111,
      "mean_anomaly_deg": 4.5158,
      "mean_motion_rev_day": 15.30833646
    },
    {
      "epoch": "2026-04-17T03:44:04.116480Z",
      "apogee_km": 474.33668327570103,
      "perigee_km": 472.4647061467522,
      "latitude_deg": -8.253973650209232e-06,
      "longitude_deg": 162.56982933125917,
      "height_km": 474.5214894729857,
      "semi_major_axis_km": 6851.537694711226,
      "eccentricity": 0.00013661,
      "inclination_deg": 53.1603,
      "raan_deg": 63.88,
      "arg_perigee_deg": 103.7538,
      "mean_anomaly_deg": 256.3615,
      "mean_motion_rev_day": 15.30807865
    },
    {
      "epoch": "2026-04-18T20:28:20.555616Z",
      "apogee_km": 474.21618393158406,
      "perigee_km": 471.87307981348386,
      "latitude_deg": 4.009905293529471e-05,
      "longitude_deg": -98.06227616861524,
      "height_km": 474.7227915812631,
      "semi_major_axis_km": 6851.181631872534,
      "eccentricity": 0.000171,
      "inclination_deg": 53.1609,
      "raan_deg": 55.9894,
      "arg_perigee_deg": 131.725,
      "mean_anomaly_deg": 228.3898,
      "mean_motion_rev_day": 15.30927203
    },
    {
      "epoch": "2026-04-19T13:42:25.123104Z",
      "apogee_km": 474.0742957711991,
      "perigee_km": 471.7750794688327,
      "latitude_deg": -3.413172633627061e-05,
      "longitude_deg": -0.6269633468747418,
      "height_km": 474.40131575202554,
      "semi_major_axis_km": 6851.061687620016,
      "eccentricity": 0.0001678,
      "inclination_deg": 53.1622,
      "raan_deg": 52.6516,
      "arg_perigee_deg": 120.1998,
      "mean_anomaly_deg": 239.9169,
      "mean_motion_rev_day": 15.30967407
    },
    {
      "epoch": "2026-04-20T13:12:27.764640Z",
      "apogee_km": 473.8647313996753,
      "perigee_km": 471.54010456836477,
      "latitude_deg": -5.691822789779038e-06,
      "longitude_deg": 1.34240884319344,
      "height_km": 474.26294904057113,
      "semi_major_axis_km": 6850.83941798402,
      "eccentricity": 0.00016966,
      "inclination_deg": 53.1617,
      "raan_deg": 48.0971,
      "arg_perigee_deg": 124.7268,
      "mean_anomaly_deg": 235.3893,
      "mean_motion_rev_day": 15.31041914
    },
    {
      "epoch": "2026-04-21T12:42:25.875360Z",
      "apogee_km": 473.44598439321726,
      "perigee_km": 471.4694508052962,
      "latitude_deg": -6.3195540408875454e-06,
      "longitude_deg": 3.3326888411693516,
      "height_km": 473.8740935909581,
      "semi_major_axis_km": 6850.594717599257,
      "eccentricity": 0.00014426,
      "inclination_deg": 53.1611,
      "raan_deg": 43.5446,
      "arg_perigee_deg": 121.5957,
      "mean_anomaly_deg": 238.5185,
      "mean_motion_rev_day": 15.31123947
    },
    {
      "epoch": "2026-04-22T12:12:19.976256Z",
      "apogee_km": 473.2618173830833,
      "perigee_km": 471.22821297805694,
      "latitude_deg": -3.236010185559248e-05,
      "longitude_deg": 5.337103162978155,
      "height_km": 473.72894969314865,
      "semi_major_axis_km": 6850.382015180569,
      "eccentricity": 0.00014843,
      "inclination_deg": 53.1609,
      "raan_deg": 38.9895,
      "arg_perigee_deg": 125.1439,
      "mean_anomaly_deg": 234.9701,
      "mean_motion_rev_day": 15.31195259
    },
    {
      "epoch": "2026-04-23T11:42:09.770112Z",
      "apogee_km": 473.03255824410735,
      "perigee_km": 470.9562834104545,
      "latitude_deg": 4.515415678092035e-05,
      "longitude_deg": 7.3595901778748685,
      "height_km": 473.5528215058637,
      "semi_major_axis_km": 6850.131420827281,
      "eccentricity": 0.00015155,
      "inclination_deg": 53.1599,
      "raan_deg": 34.4344,
      "arg_perigee_deg": 129.4615,
      "mean_anomaly_deg": 230.6521,
      "mean_motion_rev_day": 15.31279282
    }
  ]
}